[{"OBJECT_NAME":"STARLINK-31892","OBJECT_ID":"2024-097U","EPOCH":"2026-03-09T13:19:05.058624","MEAN_MOTION":15.27575099,"ECCENTRICITY":0.00013189,"INCLINATION":43.0015,"RA_OF_ASC_NODE":275.3387,"ARG_OF_PERICENTER":275.6883,"MEAN_ANOMALY":84.3818,"EPHEMERIS_TYPE":0,"CLASSIFICATION_TYPE":"U","NORAD_CAT_ID":59853,"ELEMENT_SET_NO":999,"REV_AT_EPOCH":10189,"BSTAR":-2.4375818e-5,"MEAN_MOTION_DOT":-9.33e-6,"MEAN_MOTION_DDOT":0},{"OBJECT_NAME":"CZ-6A DEB","OBJECT_ID":"2023-168D","EPOCH":"2026-03-09T19:03:52.964928","MEAN_MOTION":15.28240044,"ECCENTRICITY":0.00013417,"INCLINATION":97.7802,"RA_OF_ASC_NODE":98.3362,"ARG_OF_PERICENTER":174.0661,"MEAN_ANOMALY":186.0594,"EPHEMERIS_TYPE":0,"CLASSIFICATION_TYPE":"U","NORAD_CAT_ID":58202,"ELEMENT_SET_NO":999,"REV_AT_EPOCH":12922,"BSTAR":0.0014474773,"MEAN_MOTION_DOT":0.00039923,"MEAN_MOTION_DDOT":0}]
